STARLINK-5330
1 55282U 23010P   26090.07550763 -.00090088  00000+0 -73072-2 0  9995
2 55282  69.9983 350.3590 0007524 244.9504 115.0876 15.00017777175982
STARLINK-34088
1 64025U 25102D   26089.95380416  .01659148  00000+0  12032+0 0  9998
2 64025  70.0004  60.9844 0015898 219.6777 140.3221 15.00404845 49143
STARLINK-34030
1 64030U 25102J   26090.22083196  .01355137  00000+0  99338-1 0  9998
2 64030  70.0037  60.3144 0014639 324.8187  35.2005 15.00134238 49180
STARLINK-33946
1 64034U 25102N   26089.99134465  .00825428  00000+0  61634-1 0  9992
2 64034  70.0015  60.7226 0005017 175.4785 184.6422 14.99979495 49191
STARLINK-36055
1 66846U 25280AB  26089.92289389  .00637606  00000+0  48020-1 0  9994
2 66846  70.0003 281.0259 0003204 239.2186 120.8659 14.99905773 19262
